{"type": "FeatureCollection", "features": [ {"type": "Feature", "properties": {"norad_id": 39019, "name": "PLEIADES 1B", "group": "resource", "lat": -24.45156448926776, "lon": 77.2631076590339, "alt_km": 703.6294429071249, "timestamp": "2025-12-27T02:10:15.844957+00:00", "meta": {"OBJECT_NAME": "PLEIADES 1B", "OBJECT_ID": "2012-068A", "EPOCH": "2025-12-26T19:41:54.390624", "MEAN_MOTION": 14.58565695, "ECCENTRICITY": 0.0001143, "INCLINATION": 98.1773, "RA_OF_ASC_NODE": 73.2489, "ARG_OF_PERICENTER": 85.9136, "MEAN_ANOMALY": 274.2194, "EPHEMERIS_TYPE": 0, "CLASSIFICATION_TYPE": "U", "NORAD_CAT_ID": 39019, "ELEMENT_SET_NO": 999, "REV_AT_EPOCH": 69572, "BSTAR": 0.00010736, "MEAN_MOTION_DOT": 4.54e-06, "MEAN_MOTION_DDOT": 0}, "tle": {"line1": "1 39019U 12068A   25360.82076841  .00000454  00000+0  10736-3 0  9993", "line2": "2 39019  98.1773  73.2489 0001143  85.9136 274.2194 14.58565695695725"}}, "geometry": {"type": "Point", "coordinates": [77.2631076590339, -24.45156448926776]}}, {"type": "Feature", "properties": {"norad_id": 39030, "name": "GOKTURK 2", "group": "resource", "lat": -26.000523760618886, "lon": -154.1839087570937, "alt_km": 650.5572896057283, "timestamp": "2025-12-27T02:10:15.844967+00:00", "meta": {"OBJECT_NAME": "GOKTURK 2", "OBJECT_ID": "2012-073A", "EPOCH": "2025-12-26T19:46:43.543776", "MEAN_MOTION": 14.75311595, "ECCENTRICITY": 0.0001497, "INCLINATION": 97.6887, "RA_OF_ASC_NODE": 201.7849, "ARG_OF_PERICENTER": 106.2123, "MEAN_ANOMALY": 253.9252, "EPHEMERIS_TYPE": 0, "CLASSIFICATION_TYPE": "U", "NORAD_CAT_ID": 39030, "ELEMENT_SET_NO": 999, "REV_AT_EPOCH": 69909, "BSTAR": 0.00015092, "MEAN_MOTION_DOT": 9.75e-06, "MEAN_MOTION_DDOT": 0}, "tle": {"line1": "1 39030U 12073A   25360.82411509  .00000975  00000+0  15092-3 0  9994", "line2": "2 39030  97.6887 201.7849 0001497 106.2123 253.9252 14.75311595699091"}}, "geometry": {"type": "Point", "coordinates": [-154.1839087570937, -26.000523760618886]}}, {"type": "Feature", "properties": {"norad_id": 39084, "name": "LANDSAT 8", "group": "resource", "lat": 69.22073767218794, "lon": 46.60043774884699, "alt_km": 695.080245526563, "timestamp": "2025-12-27T02:10:15.844977+00:00", "meta": {"OBJECT_NAME": "LANDSAT 8", "OBJECT_ID": "2013-008A", "EPOCH": "2025-12-26T19:15:17.666784", "MEAN_MOTION": 14.57116523, "ECCENTRICITY": 0.0001054, "INCLINATION": 98.2054, "RA_OF_ASC_NODE": 68.667, "ARG_OF_PERICENTER": 94.0881, "MEAN_ANOMALY": 266.0438, "EPHEMERIS_TYPE": 0, "CLASSIFICATION_TYPE": "U", "NORAD_CAT_ID": 39084, "ELEMENT_SET_NO": 999, "REV_AT_EPOCH": 67279, "BSTAR": 0.00010861, "MEAN_MOTION_DOT": 4.44e-06, "MEAN_MOTION_DDOT": 0}, "tle": {"line1": "1 39084U 13008A   25360.80228781  .00000444  00000+0  10861-3 0  9998", "line2": "2 39084  98.2054  68.6670 0001054  94.0881 266.0438 14.57116523672792"}}, "geometry": {"type": "Point", "coordinates": [46.60043774884699, 69.22073767218794]}}, {"type": "Feature", "properties": {"norad_id": 39086, "name": "SARAL", "group": "resource", "lat": -59.46112888942599, "lon": -9.940882844269602, "alt_km": 791.594646122754, "timestamp": "2025-12-27T02:10:15.844987+00:00", "meta": {"OBJECT_NAME": "SARAL", "OBJECT_ID": "2013-009A", "EPOCH": "2025-12-26T20:01:26.249376", "MEAN_MOTION": 14.32761944, "ECCENTRICITY": 0.0002953, "INCLINATION": 98.5504, "RA_OF_ASC_NODE": 184.5808, "ARG_OF_PERICENTER": 82.1629, "MEAN_ANOMALY": 277.9891, "EPHEMERIS_TYPE": 0, "CLASSIFICATION_TYPE": "U", "NORAD_CAT_ID": 39086, "ELEMENT_SET_NO": 999, "REV_AT_EPOCH": 67092, "BSTAR": 7.0121e-05, "MEAN_MOTION_DOT": 1.47e-06, "MEAN_MOTION_DDOT": 0}, "tle": {"line1": "1 39086U 13009A   25360.83433159  .00000147  00000+0  70121-4 0  9997", "line2": "2 39086  98.5504 184.5808 0002953  82.1629 277.9891 14.32761944670928"}}, "geometry": {"type": "Point", "coordinates": [-9.940882844269602, -59.46112888942599]}}, {"type": "Feature", "properties": {"norad_id": 39150, "name": "GAOFEN-1", "group": "resource", "lat": 63.8897230826885, "lon": -91.98170700260141, "alt_km": 621.5932401945147, "timestamp": "2025-12-27T02:10:15.844997+00:00", "meta": {"OBJECT_NAME": "GAOFEN-1", "OBJECT_ID": "2013-018A", "EPOCH": "2025-12-26T20:46:27.552288", "MEAN_MOTION": 14.76503802, "ECCENTRICITY": 0.0018558, "INCLINATION": 97.9305, "RA_OF_ASC_NODE": 71.2735, "ARG_OF_PERICENTER": 100.1992, "MEAN_ANOMALY": 260.1312, "EPHEMERIS_TYPE": 0, "CLASSIFICATION_TYPE": "U", "NORAD_CAT_ID": 39150, "ELEMENT_SET_NO": 999, "REV_AT_EPOCH": 68281, "BSTAR": 0.00010117, "MEAN_MOTION_DOT": 6.56e-06, "MEAN_MOTION_DDOT": 0}, "tle": {"line1": "1 39150U 13018A   25360.86559667  .00000656  00000+0  10117-3 0  9998", "line2": "2 39150  97.9305  71.2735 0018558 100.1992 260.1312 14.76503802682813"}}, "geometry": {"type": "Point", "coordinates": [-91.98170700260141, 63.8897230826885]}}, {"type": "Feature", "properties": {"norad_id": 39160, "name": "VNREDSAT 1", "group": "resource", "lat": -59.30117638227585, "lon": 69.44743348702197, "alt_km": 685.0349976114139, "timestamp": "2025-12-27T02:10:15.845007+00:00", "meta": {"OBJECT_NAME": "VNREDSAT 1", "OBJECT_ID": "2013-021B", "EPOCH": "2025-12-26T21:31:40.325664", "MEAN_MOTION": 14.64943024, "ECCENTRICITY": 0.0001163, "INCLINATION": 97.935, "RA_OF_ASC_NODE": 55.6741, "ARG_OF_PERICENTER": 82.3322, "MEAN_ANOMALY": 277.8014, "EPHEMERIS_TYPE": 0, "CLASSIFICATION_TYPE": "U", "NORAD_CAT_ID": 39160, "ELEMENT_SET_NO": 999, "REV_AT_EPOCH": 67506, "BSTAR": 0.00011978, "MEAN_MOTION_DOT": 5.95e-06, "MEAN_MOTION_DDOT": 0}, "tle": {"line1": "1 39160U 13021B   25360.89699451  .00000595  00000+0  11978-3 0  9990", "line2": "2 39160  97.9350  55.6741 0001163  82.3322 277.8014 14.64943024675063"}}, "geometry": {"type": "Point", "coordinates": [69.44743348702197, -59.30117638227585]}}, {"type": "Feature", "properties": {"norad_id": 39227, "name": "ARIRANG-5 (KOMPSAT-5)", "group": "resource", "lat": -77.29095126490934, "lon": -31.205154018995422, "alt_km": 561.7713473661224, "timestamp": "2025-12-27T02:10:15.845017+00:00", "meta": {"OBJECT_NAME": "ARIRANG-5 (KOMPSAT-5)", "OBJECT_ID": "2013-042A", "EPOCH": "2025-12-26T20:13:51.870144", "MEAN_MOTION": 15.04491684, "ECCENTRICITY": 0.000295, "INCLINATION": 97.6167, "RA_OF_ASC_NODE": 184.9465, "ARG_OF_PERICENTER": 32.3744, "MEAN_ANOMALY": 327.7662, "EPHEMERIS_TYPE": 0, "CLASSIFICATION_TYPE": "U", "NORAD_CAT_ID": 39227, "ELEMENT_SET_NO": 999, "REV_AT_EPOCH": 67794, "BSTAR": 0.00014623, "MEAN_MOTION_DOT": 1.986e-05, "MEAN_MOTION_DDOT": 0}, "tle": {"line1": "1 39227U 13042A   25360.84296146  .00001986  00000+0  14623-3 0  9991", "line2": "2 39227  97.6167 184.9465 0002950  32.3744 327.7662 15.04491684677945"}}, "geometry": {"type": "Point", "coordinates": [-31.205154018995422, -77.29095126490934]}}, {"type": "Feature", "properties": {"norad_id": 39418, "name": "SKYSAT-A", "group": "resource", "lat": -76.63984994458441, "lon": 84.08359762707018, "alt_km": 539.8094977510091, "timestamp": "2025-12-27T02:10:15.845027+00:00", "meta": {"OBJECT_NAME": "SKYSAT-A", "OBJECT_ID": "2013-066C", "EPOCH": "2025-12-26T16:59:19.383072", "MEAN_MOTION": 15.11703125, "ECCENTRICITY": 0.0021778, "INCLINATION": 97.4086, "RA_OF_ASC_NODE": 50.4912, "ARG_OF_PERICENTER": 186.7849, "MEAN_ANOMALY": 173.309, "EPHEMERIS_TYPE": 0, "CLASSIFICATION_TYPE": "U", "NORAD_CAT_ID": 39418, "ELEMENT_SET_NO": 999, "REV_AT_EPOCH": 66241, "BSTAR": 0.0002293, "MEAN_MOTION_DOT": 3.862e-05, "MEAN_MOTION_DDOT": 0}, "tle": {"line1": "1 39418U 13066C   25360.70786323  .00003862  00000+0  22930-3 0  9990", "line2": "2 39418  97.4086  50.4912 0021778 186.7849 173.3090 15.11703125662418"}}, "geometry": {"type": "Point", "coordinates": [84.08359762707018, -76.63984994458441]}}, {"type": "Feature", "properties": {"norad_id": 39419, "name": "DUBAISAT-2", "group": "resource", "lat": -74.5560650658243, "lon": 142.7977760678767, "alt_km": 541.4848828028798, "timestamp": "2025-12-27T02:10:15.845037+00:00", "meta": {"OBJECT_NAME": "DUBAISAT-2", "OBJECT_ID": "2013-066D", "EPOCH": "2025-12-26T21:51:11.471616", "MEAN_MOTION": 15.08492033, "ECCENTRICITY": 0.0009714, "INCLINATION": 97.447, "RA_OF_ASC_NODE": 350.8821, "ARG_OF_PERICENTER": 265.2242, "MEAN_ANOMALY": 94.7877, "EPHEMERIS_TYPE": 0, "CLASSIFICATION_TYPE": "U", "NORAD_CAT_ID": 39419, "ELEMENT_SET_NO": 999, "REV_AT_EPOCH": 66040, "BSTAR": 0.00024463, "MEAN_MOTION_DOT": 3.756e-05, "MEAN_MOTION_DDOT": 0}, "tle": {"line1": "1 39419U 13066D   25360.91054944  .00003756  00000+0  24463-3 0  9996", "line2": "2 39419  97.4470 350.8821 0009714 265.2242  94.7877 15.08492033660403"}}, "geometry": {"type": "Point", "coordinates": [142.7977760678767, -74.5560650658243]}}, {"type": "Feature", "properties": {"norad_id": 39574, "name": "GPM-CORE", "group": "resource", "lat": 33.127498638881725, "lon": -33.12933914217211, "alt_km": 431.271368980445, "timestamp": "2025-12-27T02:10:15.845047+00:00", "meta": {"OBJECT_NAME": "GPM-CORE", "OBJECT_ID": "2014-009C", "EPOCH": "2025-12-26T19:20:20.383872", "MEAN_MOTION": 15.44688749, "ECCENTRICITY": 0.0009012, "INCLINATION": 64.9729, "RA_OF_ASC_NODE": 165.5755, "ARG_OF_PERICENTER": 251.7413, "MEAN_ANOMALY": 108.2747, "EPHEMERIS_TYPE": 0, "CLASSIFICATION_TYPE": "U", "NORAD_CAT_ID": 39574, "ELEMENT_SET_NO": 999, "REV_AT_EPOCH": 67118, "BSTAR": 0.0002056, "MEAN_MOTION_DOT": 9.415e-05, "MEAN_MOTION_DDOT": 0}, "tle": {"line1": "1 39574U 14009C   25360.80579148  .00009415  00000+0  20560-3 0  9994", "line2": "2 39574  64.9729 165.5755 0009012 251.7413 108.2747 15.44688749671184"}}, "geometry": {"type": "Point", "coordinates": [-33.12933914217211, 33.127498638881725]}}]}